AOR-E (EGNOS/PRN 120)   
1 24307U 96053A   09169.87887609 -.00000105  00000-0  10000-3 0  8751
2 24307   0.0743 321.3056 0005608 124.1123 122.7577  1.00272377 46803
IOR-W (EGNOS/PRN 126)   
1 25153U 98006B   09168.89218589  .00000157  00000-0  10000-3 0  6098
2 25153   0.4903   5.3883 0004058  73.8880 172.8864  1.00273144 41678
ARTEMIS (EGNOS/PRN 124) 
1 26863U 01029A   09169.93978676  .00000137  00000-0  10000-3 0  7147
2 26863   7.4530  69.1066 0003190  31.0416 166.8069  1.00271942 30164
MTSAT-1R (MSAS/PRN 129) 
1 28622U 05006A   09168.78565867 -.00000262  00000-0  10000-3 0  1837
2 28622   0.0542 108.5358 0002141 154.6983  65.8284  1.00270751 15751
ANIK F1R (WAAS/PRN 138) 
1 28868U 05036A   09169.40347885 -.00000057  00000-0  10000-3 0  6893
2 28868   0.0118 333.7999 0002276 136.4967 194.4230  1.00271846 13905
GALAXY 15 (WAAS/PRN 135)
1 28884U 05041A   09168.40421097  .00000096  00000-0  10000-3 0  6458
2 28884   0.0115 307.2173 0003292 116.7749 214.3413  1.00274021 13484
MTSAT-2 (MSAS/PRN 137)  
1 28937U 06004A   09167.40601628 -.00000226  00000-0  10000-3 0  5888
2 28937   0.0184  36.7500 0003099  47.2171 111.9933  1.00274112 12220
